NORAD_CAT_ID,OBJECT_NAME,OBJECT_TYPE,EPOCH,MEAN_MOTION,ECCENTRICITY,INCLINATION,RA_OF_ASC_NODE,ARG_OF_PERICENTER,MEAN_ANOMALY,BSTAR,MEAN_MOTION_DOT,MEAN_MOTION_DDOT,TLE_LINE0,TLE_LINE1,TLE_LINE2,SEMIMAJOR_AXIS,PERIOD,APOGEE,PERIGEE,DECAYED
51732.0,STARLINK-3518,PAYLOAD,2024-02-19 08:31:54,15.0884703,0.0001548,53.2176,83.0089,102.6414,257.4752,0.00041872,6.383e-05,0.0,0 STARLINK-3518,1 51732U 22016U   24050.35549437  .00006383  00000-0  41872-3 0  9995,2 51732  53.2176  83.0089 0001548 102.6414 257.4752 15.08847030111582,6917.859,95.437,540.795,538.653,0.0
51732.0,STARLINK-3518,PAYLOAD,2024-02-20 08:22:40,15.08860042,0.0001416,53.2172,78.5502,97.097,263.0183,0.00032278,4.856e-05,0.0,0 STARLINK-3518,1 51732U 22016U   24051.34908312  .00004856  00000-0  32278-3 0  9999,2 51732  53.2172  78.5502 0001416  97.0970 263.0183 15.08860042111731,6917.819,95.436,540.664,538.705,0.0
51732.0,STARLINK-3518,PAYLOAD,2024-02-21 08:13:27,15.08850807,0.0001406,53.2162,74.0905,85.2551,274.8602,4.5847e-05,4.42e-06,0.0,0 STARLINK-3518,1 51732U 22016U   24052.34268215  .00000442  00000-0  45847-4 0  9995,2 51732  53.2162  74.0905 0001406  85.2551 274.8602 15.08850807111881,6917.847,95.437,540.685,538.74,0.0
51732.0,STARLINK-3518,PAYLOAD,2024-02-21 17:45:46,15.08843535,0.0001448,53.2166,72.3071,86.3544,273.7614,-7.5153e-05,-1.484e-05,0.0,0 STARLINK-3518,1 51732U 22016U   24052.74012328 -.00001484  00000-0 -75153-4 0  9993,2 51732  53.2166  72.3071 0001448  86.3544 273.7614 15.08843535111948,6917.87,95.437,540.736,538.733,0.0
51732.0,STARLINK-3518,PAYLOAD,2024-02-22 01:42:42,15.08841834,0.0001471,53.2172,70.8209,88.32,271.796,-6.2436e-05,-1.282e-05,0.0,0 STARLINK-3518,1 51732U 22016U   24053.07132452 -.00001282  00000-0 -62436-4 0  9997,2 51732  53.2172  70.8209 0001471  88.3200 271.7960 15.08841834111995,6917.875,95.437,540.757,538.722,0.0
51732.0,STARLINK-3518,PAYLOAD,2024-02-22 08:04:14,15.08843505,0.000149,53.2177,69.6317,88.4769,271.6393,-3.5284e-05,-8.5e-06,0.0,0 STARLINK-3518,1 51732U 22016U   24053.33628282 -.00000850  00000-0 -35284-4 0  9998,2 51732  53.2177  69.6317 0001490  88.4769 271.6393 15.08843505112030,6917.87,95.437,540.765,538.704,0.0
51732.0,STARLINK-3518,PAYLOAD,2024-02-22 17:36:33,15.08848793,0.0001485,53.2184,67.8469,90.1692,269.947,-7.7458e-05,-1.521e-05,0.0,0 STARLINK-3518,1 51732U 22016U   24053.73372237 -.00001521  00000-0 -77458-4 0  9993,2 51732  53.2184  67.8469 0001485  90.1692 269.9470 15.08848793112091,6917.854,95.437,540.746,538.691,0.0
51732.0,STARLINK-3518,PAYLOAD,2024-02-23 07:55:01,15.08843081,0.0001476,53.2184,65.1702,87.1956,272.9205,0.000122,1.654e-05,0.0,0 STARLINK-3518,1 51732U 22016U   24054.32988255  .00001654  00000-0  12200-3 0  9990,2 51732  53.2184  65.1702 0001476  87.1956 272.9205 15.08843081112186,6917.871,95.437,540.757,538.715,0.0
51732.0,STARLINK-3518,PAYLOAD,2024-02-23 17:27:20,15.0884665,0.0001465,53.2184,63.3861,88.6189,271.4971,8.8505e-05,1.121e-05,0.0,0 STARLINK-3518,1 51732U 22016U   24054.72732084  .00001121  00000-0  88505-4 0  9992,2 51732  53.2184  63.3861 0001465  88.6189 271.4971 15.08846650112240,6917.86,95.437,540.739,538.712,0.0
51732.0,STARLINK-3518,PAYLOAD,2024-02-24 04:35:03,15.08831106,0.0001541,53.2195,61.3051,90.2044,269.9124,2.9582e-05,1.83e-06,0.0,0 STARLINK-3518,1 51732U 22016U   24055.19101403  .00000183  00000-0  29582-4 0  9996,2 51732  53.2195  61.3051 0001541  90.2044 269.9124 15.08831106112315,6917.908,95.438,540.839,538.707,0.0
51732.0,STARLINK-3518,PAYLOAD,2024-02-24 09:21:12,15.08839089,0.0001582,53.2176,60.4112,82.4377,277.6795,5.6788e-05,6.16e-06,0.0,0 STARLINK-3518,1 51732U 22016U   24055.38972954  .00000616  00000-0  56788-4 0  9993,2 51732  53.2176  60.4112 0001582  82.4377 277.6795 15.08839089112340,6917.883,95.438,540.843,538.654,0.0
51732.0,STARLINK-3518,PAYLOAD,2024-02-25 09:11:58,15.08852911,0.0001722,53.2188,55.9477,75.8667,284.2517,0.00014199,1.973e-05,0.0,0 STARLINK-3518,1 51732U 22016U   24056.38332009  .00001973  00000-0  14199-3 0  9991,2 51732  53.2188  55.9477 0001722  75.8667 284.2517 15.08852911112491,6917.841,95.437,540.897,538.515,0.0
51732.0,STARLINK-3518,PAYLOAD,2024-02-25 17:08:55,15.08838079,0.0001658,53.2201,54.4614,81.366,278.752,0.00011116,1.481e-05,0.0,0 STARLINK-3518,1 51732U 22016U   24056.71452778  .00001481  00000-0  11116-3 0  9994,2 51732  53.2201  54.4614 0001658  81.3660 278.7520 15.08838079112544,6917.886,95.438,540.898,538.604,0.0
51732.0,STARLINK-3518,PAYLOAD,2024-02-26 05:52:00,15.08840742,0.0001755,53.2199,52.08,88.5267,271.5926,0.00011071,1.474e-05,0.0,0 STARLINK-3518,1 51732U 22016U   24057.24444831  .00001474  00000-0  11071-3 0  9996,2 51732  53.2199  52.0800 0001755  88.5267 271.5926 15.08840742112621,6917.878,95.438,540.957,538.529,0.0
51732.0,STARLINK-3518,PAYLOAD,2024-02-27 04:07:24,15.08848792,0.000156,53.2179,47.9221,80.1043,280.0126,0.00012578,1.715e-05,0.0,0 STARLINK-3518,1 51732U 22016U   24058.17180611  .00001715  00000-0  12578-3 0  9993,2 51732  53.2179  47.9221 0001560  80.1043 280.0126 15.08848792112768,6917.854,95.437,540.798,538.639,0.0
51732.0,STARLINK-3518,PAYLOAD,2024-02-27 08:53:33,15.08853595,0.0001591,53.2178,47.0283,83.2914,276.826,0.00019939,2.888e-05,0.0,0 STARLINK-3518,1 51732U 22016U   24058.37052298  .00002888  00000-0  19939-3 0  9994,2 51732  53.2178  47.0283 0001591  83.2914 276.8260 15.08853595112793,6917.839,95.437,540.804,538.603,0.0
51732.0,STARLINK-3518,PAYLOAD,2024-02-28 03:58:11,15.08845016,0.0001899,53.2175,43.4595,111.1106,249.009,0.00019924,2.885e-05,0.0,0 STARLINK-3518,1 51732U 22016U   24059.16540655  .00002885  00000-0  19924-3 0  9992,2 51732  53.2175  43.4595 0001899 111.1106 249.0090 15.08845016112917,6917.865,95.437,541.044,538.416,0.0
51732.0,STARLINK-3518,PAYLOAD,2024-02-28 05:33:34,15.08845643,0.0001519,53.218,43.1652,92.2156,267.901,0.00020839,3.031e-05,0.0,0 STARLINK-3518,1 51732U 22016U   24059.23164737  .00003031  00000-0  20839-3 0  9994,2 51732  53.2180  43.1652 0001519  92.2156 267.9010 15.08845643112925,6917.863,95.437,540.779,538.677,0.0
51732.0,STARLINK-3518,PAYLOAD,2024-02-29 05:24:21,15.08844431,0.0001511,53.2188,38.7023,101.792,258.3242,9.1853e-05,1.174e-05,0.0,0 STARLINK-3518,1 51732U 22016U   24060.22524722  .00001174  00000-0  91853-4 0  9990,2 51732  53.2188  38.7023 0001511 101.7920 258.3242 15.08844431113074,6917.867,95.437,540.777,538.687,0.0
51732.0,STARLINK-3518,PAYLOAD,2024-02-29 08:35:07,15.08844694,0.0001528,53.2189,38.1077,102.5509,257.5654,9.758e-05,1.266e-05,0.0,0 STARLINK-3518,1 51732U 22016U   24060.35772697  .00001266  00000-0  97580-4 0  9995,2 51732  53.2189  38.1077 0001528 102.5509 257.5654 15.08844694113099,6917.866,95.437,540.788,538.674,0.0
51732.0,STARLINK-3518,PAYLOAD,2024-02-29 14:56:40,15.08841838,0.0001393,53.2179,36.9177,92.2528,267.8623,2.2863e-05,7.6e-07,0.0,0 STARLINK-3518,1 51732U 22016U   24060.62268831  .00000076  00000-0  22863-4 0  9995,2 51732  53.2179  36.9177 0001393  92.2528 267.8623 15.08841838113133,6917.875,95.437,540.703,538.776,0.0
51732.0,STARLINK-3518,PAYLOAD,2024-03-01 03:39:45,15.08832993,0.0001443,53.2186,34.5393,95.6999,264.4158,-6.5248e-05,-1.326e-05,0.0,0 STARLINK-3518,1 51732U 22016U   24061.15261447 -.00001326  00000-0 -65248-4 0  9995,2 51732  53.2186  34.5393 0001443  95.6999 264.4158 15.08832993113217,6917.902,95.438,540.765,538.769,0.0
51732.0,STARLINK-3518,PAYLOAD,2024-03-01 05:15:09,15.08836628,0.0001401,53.2191,34.2448,97.777,262.3382,4.9528e-05,5e-06,0.0,0 STARLINK-3518,1 51732U 22016U   24061.21885616  .00000500  00000-0  49528-4 0  9996,2 51732  53.2191  34.2448 0001401  97.7770 262.3382 15.08836628113221,6917.891,95.438,540.725,538.786,0.0
51732.0,STARLINK-3518,PAYLOAD,2024-03-02 03:30:32,15.08843494,0.0001422,53.2187,30.0821,101.5002,258.615,0.00013132,1.803e-05,0.0,0 STARLINK-3518,1 51732U 22016U   24062.14621100  .00001803  00000-0  13132-3 0  9993,2 51732  53.2187  30.0821 0001422 101.5002 258.6150 15.08843494113365,6917.87,95.437,540.718,538.751,0.0
51732.0,STARLINK-3518,PAYLOAD,2024-03-03 04:56:42,15.088459,0.0001333,53.2183,25.3227,93.1966,266.9179,0.0001489,2.083e-05,0.0,0 STARLINK-3518,1 51732U 22016U   24063.20605063  .00002083  00000-0  14890-3 0  9994,2 51732  53.2183  25.3227 0001333  93.1966 266.9179 15.08845900113529,6917.862,95.437,540.65,538.805,0.0
51732.0,STARLINK-3518,PAYLOAD,2024-03-03 06:32:05,15.08846658,0.0001325,53.2181,25.0246,86.8004,273.314,0.00015461,2.174e-05,0.0,0 STARLINK-3518,1 51732U 22016U   24063.27229033  .00002174  00000-0  15461-3 0  9996,2 51732  53.2181  25.0246 0001325  86.8004 273.3140 15.08846658113530,6917.86,95.437,540.642,538.808,0.0
51732.0,STARLINK-3518,PAYLOAD,2024-03-04 06:22:52,15.08860975,0.000182,53.2204,20.5591,75.1652,284.9542,0.00033288,5.017e-05,0.0,0 STARLINK-3518,1 51732U 22016U   24064.26588316  .00005017  00000-0  33288-3 0  9994,2 51732  53.2204  20.5591 0001820  75.1652 284.9542 15.08860975113687,6917.816,95.436,540.94,538.422,0.0
51732.0,STARLINK-3518,PAYLOAD,2024-03-04 14:19:48,15.08833548,0.000151,53.2179,19.0763,87.141,272.9755,-8.8335e-05,-1.693e-05,0.0,0 STARLINK-3518,1 51732U 22016U   24064.59709362 -.00001693  00000-0 -88335-4 0  9998,2 51732  53.2179  19.0763 0001510  87.1410 272.9755 15.08833548113738,6917.9,95.438,540.81,538.721,0.0
51732.0,STARLINK-3518,PAYLOAD,2024-03-05 06:13:40,15.08829822,0.0001577,53.2192,16.0996,97.3296,262.7876,-5.484e-05,-1.16e-05,0.0,0 STARLINK-3518,1 51732U 22016U   24065.25949938 -.00001160  00000-0 -54840-4 0  9990,2 51732  53.2192  16.0996 0001577  97.3296 262.7876 15.08829822113838,6917.911,95.438,540.867,538.686,0.0
51732.0,STARLINK-3518,PAYLOAD,2024-03-06 02:53:41,15.08854597,0.0001602,53.2198,12.2368,93.5943,266.5233,0.00054524,8.404e-05,0.0,0 STARLINK-3518,1 51732U 22016U   24066.12061430  .00008404  00000-0  54524-3 0  9993,2 51732  53.2198  12.2368 0001602  93.5943 266.5233 15.08854597113961,6917.836,95.437,540.809,538.593,0.0
